[{"OBJECT_NAME":"CASSIOPE","OBJECT_ID":"2013-055A","EPOCH":"2026-03-09T21:11:47.938272","MEAN_MOTION":15.1877309,"ECCENTRICITY":0.03156148,"INCLINATION":80.9178,"RA_OF_ASC_NODE":186.7098,"ARG_OF_PERICENTER":35.6181,"MEAN_ANOMALY":326.5663,"EPHEMERIS_TYPE":0,"CLASSIFICATION_TYPE":"U","NORAD_CAT_ID":39265,"ELEMENT_SET_NO":999,"REV_AT_EPOCH":65256,"BSTAR":0.00049515333,"MEAN_MOTION_DOT":0.00041326,"MEAN_MOTION_DDOT":-5.06855e-7},{"OBJECT_NAME":"STARLINK-35837","OBJECT_ID":"2025-280V","EPOCH":"2026-03-09T21:21:22.331520","MEAN_MOTION":14.983313,"ECCENTRICITY":0.00029338,"INCLINATION":70.0022,"RA_OF_ASC_NODE":334.0388,"ARG_OF_PERICENTER":271.456,"MEAN_ANOMALY":88.6263,"EPHEMERIS_TYPE":0,"CLASSIFICATION_TYPE":"U","NORAD_CAT_ID":66840,"ELEMENT_SET_NO":999,"REV_AT_EPOCH":1610,"BSTAR":0.00041961122,"MEAN_MOTION_DOT":4.917e-5,"MEAN_MOTION_DDOT":0}]
